{
"type": "FeatureCollection",
"name": "03_sector1_boundary",
"crs": { "type": "name", "properties": { "name": "urn:ogc:def:crs:OGC:1.3:CRS84" } },
"features": [
{"type":"Feature","properties":{"id":null,"name":"Setor 1 - Ward 8 Ficcional"},"geometry":{"type":"MultiPolygon","coordinates":[[[[-76.961947542810393,38.852088093142079],[-77.016723699751125,38.809392299461813],[-77.016723699751125,38.809392299461813],[-77.016723699751125,38.808681689858254],[-77.018263353892166,38.808681689858254],[-77.020395182702828,38.809155429593957],[-77.022290141645641,38.809155429593957],[-77.023356056050972,38.809273864527881],[-77.024658840324165,38.809747604263585],[-77.026080059531267,38.810221343999288],[-77.026790669134826,38.811524128272474],[-77.027856583540157,38.814011261884922],[-77.028211888341929,38.816024655761659],[-77.028211888341929,38.817209005100921],[-77.027738148606232,38.819459268845506],[-77.02738284380446,38.822420142193657],[-77.027264408870522,38.825144145673953],[-77.026790669134826,38.827986584088173],[-77.025961624597343,38.831065892370248],[-77.025014145125937,38.833553025982688],[-77.024421970456302,38.836040159595129],[-77.02359292591882,38.839830077480762],[-77.017671179222546,38.852976355146531],[-77.016960569618988,38.854634444221496],[-77.015657785345809,38.857121577833936],[-77.012104737328031,38.859845581314232],[-77.010209778385217,38.860556190917784],[-77.006893600235287,38.862451149860604],[-77.006182990631743,38.863635499199859],[-77.004643336490702,38.86624106774623],[-77.003814291953219,38.867543852019416],[-77.002985247415737,38.867306982151561],[-77.001919333010406,38.867188547217637],[-77.001564028208634,38.866359502680154],[-77.001327158340771,38.864582978671265],[-76.999669069265821,38.863517064265935],[-76.998010980190855,38.863753934133783],[-76.995523846578408,38.864346108803417],[-76.992681408164188,38.866004197878375],[-76.990668014287451,38.86801759175512],[-76.988773055344637,38.86943881096223],[-76.98735183613752,38.87050472536756],[-76.985693747062555,38.870741595235408],[-76.984035657987604,38.87192594457467],[-76.981785394243005,38.872754989112153],[-76.979772000366268,38.873820903517483],[-76.976929561952048,38.874531513121042],[-76.973968688603904,38.875005252856745],[-76.971126250189641,38.873820903517483],[-76.971007815255717,38.873228728847856],[-76.971007815255717,38.872695771645184],[-76.970948597788762,38.872044379508587],[-76.970948597788748,38.87222203190948],[-76.970948597788748,38.871215334971104],[-76.971126250189641,38.870682377768439],[-76.971067032722672,38.869616463363108],[-76.971007815255717,38.868728201358664],[-76.970474858053052,38.867603069486371],[-76.970415640586083,38.866241067746223],[-76.970830162854824,38.865056718406962],[-76.9707117279209,38.86434610880341],[-76.969705030982524,38.862332714926666],[-76.969349726180752,38.861444452922221],[-76.969112856312904,38.860911495719556],[-76.968283811775422,38.860260103582966],[-76.968283811775422,38.859667928913332],[-76.968046941907573,38.858483579574077],[-76.967573202171863,38.857595317569633],[-76.967158679903122,38.856943925433043],[-76.966566505233502,38.856351750763409],[-76.966092765497791,38.855522706225926],[-76.965441373361202,38.854693661688451],[-76.964671546290674,38.853805399684006],[-76.963191109616602,38.852324963009934],[-76.962598934946982,38.852088093142079],[-76.961947542810393,38.852088093142079]]]]}}
]
}
